<?xml version="1.0" encoding="UTF-8"?>
<ndm xmlns:xsi="http://www.w3.org/2001/XMLSchema-instance" xsi:noNamespaceSchemaLocation="https://sanaregistry.org/r/ndmxml_unqualified/ndmxml-2.0.0-master-2.0.xsd">
<omm id="CCSDS_OMM_VERS" version="2.0">
<header><CREATION_DATE/><ORIGINATOR/></header><body><segment><metadata><OBJECT_NAME>IRIDIUM 166</OBJECT_NAME><OBJECT_ID>2018-061B</OBJECT_ID><CENTER_NAME>EARTH</CENTER_NAME><REF_FRAME>TEME</REF_FRAME><TIME_SYSTEM>UTC</TIME_SYSTEM><MEAN_ELEMENT_THEORY>SGP4</MEAN_ELEMENT_THEORY></metadata><data><meanElements><EPOCH>2024-10-06T04:03:38.200896</EPOCH><MEAN_MOTION>14.34221144</MEAN_MOTION><ECCENTRICITY>.0002219</ECCENTRICITY><INCLINATION>86.3952</INCLINATION><RA_OF_ASC_NODE>315.4423</RA_OF_ASC_NODE><ARG_OF_PERICENTER>97.9828</ARG_OF_PERICENTER><MEAN_ANOMALY>262.1619</MEAN_ANOMALY></meanElements><tleParameters><EPHEMERIS_TYPE>0</EPHEMERIS_TYPE><CLASSIFICATION_TYPE>U</CLASSIFICATION_TYPE><NORAD_CAT_ID>43570</NORAD_CAT_ID><ELEMENT_SET_NO>999</ELEMENT_SET_NO><REV_AT_EPOCH>32467</REV_AT_EPOCH><BSTAR>.21051E-3</BSTAR><MEAN_MOTION_DOT>.609E-5</MEAN_MOTION_DOT><MEAN_MOTION_DDOT>0</MEAN_MOTION_DDOT></tleParameters></data></segment></body></omm>
<omm id="CCSDS_OMM_VERS" version="2.0">
<header><CREATION_DATE/><ORIGINATOR/></header><body><segment><metadata><OBJECT_NAME>IRIDIUM 158</OBJECT_NAME><OBJECT_ID>2018-061C</OBJECT_ID><CENTER_NAME>EARTH</CENTER_NAME><REF_FRAME>TEME</REF_FRAME><TIME_SYSTEM>UTC</TIME_SYSTEM><MEAN_ELEMENT_THEORY>SGP4</MEAN_ELEMENT_THEORY></metadata><data><meanElements><EPOCH>2024-10-06T09:59:50.046144</EPOCH><MEAN_MOTION>14.34221096</MEAN_MOTION><ECCENTRICITY>.0002249</ECCENTRICITY><INCLINATION>86.3951</INCLINATION><RA_OF_ASC_NODE>315.3482</RA_OF_ASC_NODE><ARG_OF_PERICENTER>96.5637</ARG_OF_PERICENTER><MEAN_ANOMALY>263.5815</MEAN_ANOMALY></meanElements><tleParameters><EPHEMERIS_TYPE>0</EPHEMERIS_TYPE><CLASSIFICATION_TYPE>U</CLASSIFICATION_TYPE><NORAD_CAT_ID>43571</NORAD_CAT_ID><ELEMENT_SET_NO>999</ELEMENT_SET_NO><REV_AT_EPOCH>32468</REV_AT_EPOCH><BSTAR>.1806E-3</BSTAR><MEAN_MOTION_DOT>.526E-5</MEAN_MOTION_DOT><MEAN_MOTION_DDOT>0</MEAN_MOTION_DDOT></tleParameters></data></segment></body></omm>
<omm id="CCSDS_OMM_VERS" version="2.0">
<header><CREATION_DATE/><ORIGINATOR/></header><body><segment><metadata><OBJECT_NAME>IRIDIUM 165</OBJECT_NAME><OBJECT_ID>2018-061D</OBJECT_ID><CENTER_NAME>EARTH</CENTER_NAME><REF_FRAME>TEME</REF_FRAME><TIME_SYSTEM>UTC</TIME_SYSTEM><MEAN_ELEMENT_THEORY>SGP4</MEAN_ELEMENT_THEORY></metadata><data><meanElements><EPOCH>2024-10-06T08:55:54.436512</EPOCH><MEAN_MOTION>14.34217102</MEAN_MOTION><ECCENTRICITY>.000218</ECCENTRICITY><INCLINATION>86.3954</INCLINATION><RA_OF_ASC_NODE>315.4015</RA_OF_ASC_NODE><ARG_OF_PERICENTER>92.1308</ARG_OF_PERICENTER><MEAN_ANOMALY>268.0137</MEAN_ANOMALY></meanElements><tleParameters><EPHEMERIS_TYPE>0</EPHEMERIS_TYPE><CLASSIFICATION_TYPE>U</CLASSIFICATION_TYPE><NORAD_CAT_ID>43572</NORAD_CAT_ID><ELEMENT_SET_NO>999</ELEMENT_SET_NO><REV_AT_EPOCH>32469</REV_AT_EPOCH><BSTAR>.3156E-4</BSTAR><MEAN_MOTION_DOT>.108E-5</MEAN_MOTION_DOT><MEAN_MOTION_DDOT>0</MEAN_MOTION_DDOT></tleParameters></data></segment></body></omm>
<omm id="CCSDS_OMM_VERS" version="2.0">
<header><CREATION_DATE/><ORIGINATOR/></header><body><segment><metadata><OBJECT_NAME>IRIDIUM 155</OBJECT_NAME><OBJECT_ID>2018-061E</OBJECT_ID><CENTER_NAME>EARTH</CENTER_NAME><REF_FRAME>TEME</REF_FRAME><TIME_SYSTEM>UTC</TIME_SYSTEM><MEAN_ELEMENT_THEORY>SGP4</MEAN_ELEMENT_THEORY></metadata><data><meanElements><EPOCH>2024-10-06T02:59:42.378720</EPOCH><MEAN_MOTION>14.34217117</MEAN_MOTION><ECCENTRICITY>.000229</ECCENTRICITY><INCLINATION>86.3947</INCLINATION><RA_OF_ASC_NODE>315.4041</RA_OF_ASC_NODE><ARG_OF_PERICENTER>99.2128</ARG_OF_PERICENTER><MEAN_ANOMALY>260.9326</MEAN_ANOMALY></meanElements><tleParameters><EPHEMERIS_TYPE>0</EPHEMERIS_TYPE><CLASSIFICATION_TYPE>U</CLASSIFICATION_TYPE><NORAD_CAT_ID>43573</NORAD_CAT_ID><ELEMENT_SET_NO>999</ELEMENT_SET_NO><REV_AT_EPOCH>32463</REV_AT_EPOCH><BSTAR>.36233E-3</BSTAR><MEAN_MOTION_DOT>.1035E-4</MEAN_MOTION_DOT><MEAN_MOTION_DDOT>0</MEAN_MOTION_DDOT></tleParameters></data></segment></body></omm>
<omm id="CCSDS_OMM_VERS" version="2.0">
<header><CREATION_DATE/><ORIGINATOR/></header><body><segment><metadata><OBJECT_NAME>IRIDIUM 154</OBJECT_NAME><OBJECT_ID>2018-061F</OBJECT_ID><CENTER_NAME>EARTH</CENTER_NAME><REF_FRAME>TEME</REF_FRAME><TIME_SYSTEM>UTC</TIME_SYSTEM><MEAN_ELEMENT_THEORY>SGP4</MEAN_ELEMENT_THEORY></metadata><data><meanElements><EPOCH>2024-10-06T09:14:10.407552</EPOCH><MEAN_MOTION>14.34217495</MEAN_MOTION><ECCENTRICITY>.0001893</ECCENTRICITY><INCLINATION>86.3952</INCLINATION><RA_OF_ASC_NODE>315.3984</RA_OF_ASC_NODE><ARG_OF_PERICENTER>90.7668</ARG_OF_PERICENTER><MEAN_ANOMALY>269.3745</MEAN_ANOMALY></meanElements><tleParameters><EPHEMERIS_TYPE>0</EPHEMERIS_TYPE><CLASSIFICATION_TYPE>U</CLASSIFICATION_TYPE><NORAD_CAT_ID>43574</NORAD_CAT_ID><ELEMENT_SET_NO>999</ELEMENT_SET_NO><REV_AT_EPOCH>32471</REV_AT_EPOCH><BSTAR>-.17288E-6</BSTAR><MEAN_MOTION_DOT>.19E-6</MEAN_MOTION_DOT><MEAN_MOTION_DDOT>0</MEAN_MOTION_DDOT></tleParameters></data></segment></body></omm>
<omm id="CCSDS_OMM_VERS" version="2.0">
<header><CREATION_DATE/><ORIGINATOR/></header><body><segment><metadata><OBJECT_NAME>IRIDIUM 163</OBJECT_NAME><OBJECT_ID>2018-061G</OBJECT_ID><CENTER_NAME>EARTH</CENTER_NAME><REF_FRAME>TEME</REF_FRAME><TIME_SYSTEM>UTC</TIME_SYSTEM><MEAN_ELEMENT_THEORY>SGP4</MEAN_ELEMENT_THEORY></metadata><data><meanElements><EPOCH>2024-10-05T19:23:02.360544</EPOCH><MEAN_MOTION>14.34218307</MEAN_MOTION><ECCENTRICITY>.0001979</ECCENTRICITY><INCLINATION>86.3951</INCLINATION><RA_OF_ASC_NODE>315.5752</RA_OF_ASC_NODE><ARG_OF_PERICENTER>96.1018</ARG_OF_PERICENTER><MEAN_ANOMALY>264.0404</MEAN_ANOMALY></meanElements><tleParameters><EPHEMERIS_TYPE>0</EPHEMERIS_TYPE><CLASSIFICATION_TYPE>U</CLASSIFICATION_TYPE><NORAD_CAT_ID>43575</NORAD_CAT_ID><ELEMENT_SET_NO>999</ELEMENT_SET_NO><REV_AT_EPOCH>32460</REV_AT_EPOCH><BSTAR>.12248E-3</BSTAR><MEAN_MOTION_DOT>.363E-5</MEAN_MOTION_DOT><MEAN_MOTION_DDOT>0</MEAN_MOTION_DDOT></tleParameters></data></segment></body></omm>
<omm id="CCSDS_OMM_VERS" version="2.0">
<header><CREATION_DATE/><ORIGINATOR/></header><body><segment><metadata><OBJECT_NAME>IRIDIUM 156</OBJECT_NAME><OBJECT_ID>2018-061H</OBJECT_ID><CENTER_NAME>EARTH</CENTER_NAME><REF_FRAME>TEME</REF_FRAME><TIME_SYSTEM>UTC</TIME_SYSTEM><MEAN_ELEMENT_THEORY>SGP4</MEAN_ELEMENT_THEORY></metadata><data><meanElements><EPOCH>2024-10-05T20:26:58.434144</EPOCH><MEAN_MOTION>14.34220843</MEAN_MOTION><ECCENTRICITY>.0002399</ECCENTRICITY><INCLINATION>86.3951</INCLINATION><RA_OF_ASC_NODE>315.5628</RA_OF_ASC_NODE><ARG_OF_PERICENTER>99.8711</ARG_OF_PERICENTER><MEAN_ANOMALY>260.2755</MEAN_ANOMALY></meanElements><tleParameters><EPHEMERIS_TYPE>0</EPHEMERIS_TYPE><CLASSIFICATION_TYPE>U</CLASSIFICATION_TYPE><NORAD_CAT_ID>43576</NORAD_CAT_ID><ELEMENT_SET_NO>999</ELEMENT_SET_NO><REV_AT_EPOCH>32460</REV_AT_EPOCH><BSTAR>.40775E-3</BSTAR><MEAN_MOTION_DOT>.1162E-4</MEAN_MOTION_DOT><MEAN_MOTION_DDOT>0</MEAN_MOTION_DDOT></tleParameters></data></segment></body></omm>
<omm id="CCSDS_OMM_VERS" version="2.0">
<header><CREATION_DATE/><ORIGINATOR/></header><body><segment><metadata><OBJECT_NAME>IRIDIUM 164</OBJECT_NAME><OBJECT_ID>2018-061J</OBJECT_ID><CENTER_NAME>EARTH</CENTER_NAME><REF_FRAME>TEME</REF_FRAME><TIME_SYSTEM>UTC</TIME_SYSTEM><MEAN_ELEMENT_THEORY>SGP4</MEAN_ELEMENT_THEORY></metadata><data><meanElements><EPOCH>2024-10-05T14:58:10.041312</EPOCH><MEAN_MOTION>14.34221752</MEAN_MOTION><ECCENTRICITY>.0002286</ECCENTRICITY><INCLINATION>86.3953</INCLINATION><RA_OF_ASC_NODE>315.6891</RA_OF_ASC_NODE><ARG_OF_PERICENTER>88.3645</ARG_OF_PERICENTER><MEAN_ANOMALY>271.7812</MEAN_ANOMALY></meanElements><tleParameters><EPHEMERIS_TYPE>0</EPHEMERIS_TYPE><CLASSIFICATION_TYPE>U</CLASSIFICATION_TYPE><NORAD_CAT_ID>43577</NORAD_CAT_ID><ELEMENT_SET_NO>999</ELEMENT_SET_NO><REV_AT_EPOCH>32461</REV_AT_EPOCH><BSTAR>.35603E-3</BSTAR><MEAN_MOTION_DOT>.1017E-4</MEAN_MOTION_DOT><MEAN_MOTION_DDOT>0</MEAN_MOTION_DDOT></tleParameters></data></segment></body></omm>

</ndm>
