IRIDIUM 166             
1 43570U 18061B   24280.16919214  .00000609  00000+0  21051-3 0  9990
2 43570  86.3952 315.4423 0002219  97.9828 262.1619 14.34221144324678
IRIDIUM 158             
1 43571U 18061C   24280.41655146  .00000526  00000+0  18060-3 0  9994
2 43571  86.3951 315.3482 0002249  96.5637 263.5815 14.34221096324688
IRIDIUM 165             
1 43572U 18061D   24280.37215783  .00000108  00000+0  31560-4 0  9996
2 43572  86.3954 315.4015 0002180  92.1308 268.0137 14.34217102324697
IRIDIUM 155             
1 43573U 18061E   24280.12479605  .00001035  00000+0  36233-3 0  9996
2 43573  86.3947 315.4041 0002290  99.2128 260.9326 14.34217117324630
IRIDIUM 154             
1 43574U 18061F   24280.38484268  .00000019  00000+0 -17288-6 0  9990
2 43574  86.3952 315.3984 0001893  90.7668 269.3745 14.34217495324711
IRIDIUM 163             
1 43575U 18061G   24279.80766621  .00000363  00000+0  12248-3 0  9991
2 43575  86.3951 315.5752 0001979  96.1018 264.0404 14.34218307324605
IRIDIUM 156             
1 43576U 18061H   24279.85206521  .00001162  00000+0  40775-3 0  9999
2 43576  86.3951 315.5628 0002399  99.8711 260.2755 14.34220843324600
IRIDIUM 164             
1 43577U 18061J   24279.62372733  .00001017  00000+0  35603-3 0  9997
2 43577  86.3953 315.6891 0002286  88.3645 271.7812 14.34221752324612
